43929,IRIDIUM 171,2019,100.4,860.0,+,86.4,Active,1,LEO,USA,USA,Commercial/Government,Communications,Falcon,1 43929U 19002H   24306.89637364  .00000042  00000+0  79086-5 0  9990,2 43929  86.3984 241.2834 0002282  76.0677 284.0773 14.34214741304063,14.34214741,0.0002282,LEO
43930,IRIDIUM 170,2019,97.81,860.0,+,86.61,Active,1,LEO,USA,USA,Commercial/Government,Communications,Falcon,1 43930U 19002J   24306.89457271  .00005862  00000+0  92517-3 0  9996,2 43930  86.6109 241.0786 0002269  80.5021 279.6453 14.72253032312117,14.72253032,0.0002269,LEO
43931,IRIDIUM 167,2019,100.4,860.0,+,86.4,Active,1,LEO,USA,USA,Commercial/Government,Communications,Falcon,1 43931U 19002K   24306.89001513  .00000334  00000+0  11208-3 0  9998,2 43931  86.3979 241.0627 0002481  80.2930 279.8546 14.34208364304062,14.34208364,0.0002481,LEO
56726,IRIDIUM 181,2023,99.75,-1.0,+,86.86,Active,0,LEO,USA,USA,Unknown,Unknown,Unknown,1 56726U 23068S   24307.04720564  .00000780  00000+0  22458-3 0  9997,2 56726  86.8579 301.4541 0002397  80.4432 279.7040 14.43583192 77026,14.43583192,0.0002397,LEO
56727,IRIDIUM 177,2023,97.28,-1.0,+,86.2,Active,0,LEO,USA,USA,Unknown,Unknown,Unknown,1 56727U 23068T   24307.33532166  .00004681  00000+0  61249-3 0  9994,2 56727  86.1968 249.7357 0004030  81.8877 278.2801 14.80215652 78816,14.80215652,0.000403,LEO
56728,IRIDIUM 174,2023,97.28,-1.0,+,86.2,Active,0,LEO,USA,USA,Unknown,Unknown,Unknown,1 56728U 23068U   24306.92426413  .00007457  00000+0  97700-3 0  9991,2 56728  86.1975 250.0452 0003158  85.8919 274.2663 14.80239651 78757,14.80239651,0.0003158,LEO
56729,IRIDIUM 178,2023,97.28,-1.0,+,86.57,Active,0,LEO,USA,USA,Unknown,Unknown,Unknown,1 56729U 23068V   24307.45965825  .00005916  00000+0  77474-3 0  9990,2 56729  86.5734 273.8125 0002954  82.2618 277.8939 14.80235227 78834,14.80235227,0.0002954,LEO
56730,IRIDIUM 179,2023,97.28,-1.0,+,86.68,Active,0,LEO,USA,USA,Unknown,Unknown,Unknown,1 56730U 23068W   24306.91340502  .00001552  00000+0  20099-3 0  9994,2 56730  86.6741 279.9216 0003662  88.4380 271.7261 14.80200890 78754,14.8020089,0.0003662,LEO
